{
  "type": "FeatureCollection",
  "features": [
    {
      "type": "Feature",
      "properties": {
        "norad_id": 38709,
        "name": "EXACTVIEW-1 (ADS-1B)",
        "group": "resource",
        "lat": -45.56715975632754,
        "lon": -104.26587475313104,
        "alt_km": 822.8906671012401,
        "timestamp": "2025-12-02T19:35:50.218687+00:00",
        "meta_object_name": "EXACTVIEW-1 (ADS-1B)",
        "meta_object_id": "2012-039C",
        "meta_epoch": "2025-12-02T06:44:31.074144",
        "meta_mean_motion": 14.24900835,
        "meta_eccentricity": 0.0011197,
        "meta_inclination": 98.9635,
        "meta_ra_of_asc_node": 84.4517,
        "meta_arg_of_pericenter": 24.0465,
        "meta_mean_anomaly": 336.1234,
        "meta_ephemeris_type": 0,
        "meta_classification_type": "U",
        "meta_norad_cat_id": 38709,
        "meta_element_set_no": 999,
        "meta_rev_at_epoch": 69466,
        "meta_bstar": 0.00010714,
        "meta_mean_motion_dot": 2.04e-06,
        "meta_mean_motion_ddot": 0,
        "tle_line1": "1 38709U 12039C   25336.28091521  .00000204  00000+0  10714-3 0  9990",
        "tle_line2": "2 38709  98.9635  84.4517 0011197  24.0465 336.1234 14.24900835694667"
      },
      "geometry": {
        "type": "Point",
        "coordinates": [
          -104.26587475313104,
          -45.56715975632754
        ]
      }
    },
    {
      "type": "Feature",
      "properties": {
        "norad_id": 38755,
        "name": "SPOT 6",
        "group": "resource",
        "lat": 45.96825989461501,
        "lon": -129.6831632692906,
        "alt_km": 693.1324245626192,
        "timestamp": "2025-12-02T19:35:50.218698+00:00",
        "meta_object_name": "SPOT 6",
        "meta_object_id": "2012-047A",
        "meta_epoch": "2025-12-02T12:24:08.875296",
        "meta_mean_motion": 14.5858731,
        "meta_eccentricity": 0.0001037,
        "meta_inclination": 98.1586,
        "meta_ra_of_asc_node": 41.4888,
        "meta_arg_of_pericenter": 99.8521,
        "meta_mean_anomaly": 260.2796,
        "meta_ephemeris_type": 0,
        "meta_classification_type": "U",
        "meta_norad_cat_id": 38755,
        "meta_element_set_no": 999,
        "meta_rev_at_epoch": 70438,
        "meta_bstar": 0.0001351,
        "meta_mean_motion_dot": 5.83e-06,
        "meta_mean_motion_ddot": 0,
        "tle_line1": "1 38755U 12047A   25336.51676939  .00000583  00000+0  13510-3 0  9995",
        "tle_line2": "2 38755  98.1586  41.4888 0001037  99.8521 260.2796 14.58587310704381"
      },
      "geometry": {
        "type": "Point",
        "coordinates": [
          -129.6831632692906,
          45.96825989461501
        ]
      }
    },
    {
      "type": "Feature",
      "properties": {
        "norad_id": 39019,
        "name": "PLEIADES 1B",
        "group": "resource",
        "lat": 33.19058450653968,
        "lon": 44.22497086640764,
        "alt_km": 695.3255168232254,
        "timestamp": "2025-12-02T19:35:50.218708+00:00",
        "meta_object_name": "PLEIADES 1B",
        "meta_object_id": "2012-068A",
        "meta_epoch": "2025-12-02T11:12:41.558688",
        "meta_mean_motion": 14.58536455,
        "meta_eccentricity": 0.0001264,
        "meta_inclination": 98.1806,
        "meta_ra_of_asc_node": 49.2806,
        "meta_arg_of_pericenter": 88.1106,
        "meta_mean_anomaly": 272.0238,
        "meta_ephemeris_type": 0,
        "meta_classification_type": "U",
        "meta_norad_cat_id": 39019,
        "meta_element_set_no": 999,
        "meta_rev_at_epoch": 69217,
        "meta_bstar": 0.00013737,
        "meta_mean_motion_dot": 5.93e-06,
        "meta_mean_motion_ddot": 0,
        "tle_line1": "1 39019U 12068A   25336.46714767  .00000593  00000+0  13737-3 0  9990",
        "tle_line2": "2 39019  98.1806  49.2806 0001264  88.1106 272.0238 14.58536455692177"
      },
      "geometry": {
        "type": "Point",
        "coordinates": [
          44.22497086640764,
          33.19058450653968
        ]
      }
    },
    {
      "type": "Feature",
      "properties": {
        "norad_id": 39030,
        "name": "GOKTURK 2",
        "group": "resource",
        "lat": 12.202763296911924,
        "lon": 177.28313287485278,
        "alt_km": 645.4988473215608,
        "timestamp": "2025-12-02T19:35:50.218718+00:00",
        "meta_object_name": "GOKTURK 2",
        "meta_object_id": "2012-073A",
        "meta_epoch": "2025-12-02T13:01:49.298016",
        "meta_mean_motion": 14.75267921,
        "meta_eccentricity": 7.94e-05,
        "meta_inclination": 97.69,
        "meta_ra_of_asc_node": 178.6975,
        "meta_arg_of_pericenter": 92.9463,
        "meta_mean_anomaly": 267.1838,
        "meta_ephemeris_type": 0,
        "meta_classification_type": "U",
        "meta_norad_cat_id": 39030,
        "meta_element_set_no": 999,
        "meta_rev_at_epoch": 69551,
        "meta_bstar": 0.00014121,
        "meta_mean_motion_dot": 9.09e-06,
        "meta_mean_motion_ddot": 0,
        "tle_line1": "1 39030U 12073A   25336.54293169  .00000909  00000+0  14121-3 0  9995",
        "tle_line2": "2 39030  97.6900 178.6975 0000794  92.9463 267.1838 14.75267921695519"
      },
      "geometry": {
        "type": "Point",
        "coordinates": [
          177.28313287485278,
          12.202763296911924
        ]
      }
    },
    {
      "type": "Feature",
      "properties": {
        "norad_id": 39084,
        "name": "LANDSAT 8",
        "group": "resource",
        "lat": -72.91021454000453,
        "lon": -162.9666108835792,
        "alt_km": 710.5194153836228,
        "timestamp": "2025-12-02T19:35:50.218729+00:00",
        "meta_object_name": "LANDSAT 8",
        "meta_object_id": "2013-008A",
        "meta_epoch": "2025-12-02T11:50:19.106880",
        "meta_mean_motion": 14.57123781,
        "meta_eccentricity": 0.000108,
        "meta_inclination": 98.2085,
        "meta_ra_of_asc_node": 44.7174,
        "meta_arg_of_pericenter": 88.6347,
        "meta_mean_anomaly": 271.4976,
        "meta_ephemeris_type": 0,
        "meta_classification_type": "U",
        "meta_norad_cat_id": 39084,
        "meta_element_set_no": 999,
        "meta_rev_at_epoch": 66925,
        "meta_bstar": 0.00014508,
        "meta_mean_motion_dot": 6.09e-06,
        "meta_mean_motion_ddot": 0,
        "tle_line1": "1 39084U 13008A   25336.49327670  .00000609  00000+0  14508-3 0  9998",
        "tle_line2": "2 39084  98.2085  44.7174 0001080  88.6347 271.4976 14.57123781669253"
      },
      "geometry": {
        "type": "Point",
        "coordinates": [
          -162.9666108835792,
          -72.91021454000453
        ]
      }
    },
    {
      "type": "Feature",
      "properties": {
        "norad_id": 39086,
        "name": "SARAL",
        "group": "resource",
        "lat": 28.702001106884772,
        "lon": 156.15096779688042,
        "alt_km": 781.4529626819549,
        "timestamp": "2025-12-02T19:35:50.218739+00:00",
        "meta_object_name": "SARAL",
        "meta_object_id": "2013-009A",
        "meta_epoch": "2025-12-02T11:04:54.399936",
        "meta_mean_motion": 14.32751162,
        "meta_eccentricity": 0.0002593,
        "meta_inclination": 98.5506,
        "meta_ra_of_asc_node": 160.5261,
        "meta_arg_of_pericenter": 128.5093,
        "meta_mean_anomaly": 231.6324,
        "meta_ephemeris_type": 0,
        "meta_classification_type": "U",
        "meta_norad_cat_id": 39086,
        "meta_element_set_no": 999,
        "meta_rev_at_epoch": 66743,
        "meta_bstar": 9.1303e-05,
        "meta_mean_motion_dot": 2.05e-06,
        "meta_mean_motion_ddot": 0,
        "tle_line1": "1 39086U 13009A   25336.46174074  .00000205  00000+0  91303-4 0  9997",
        "tle_line2": "2 39086  98.5506 160.5261 0002593 128.5093 231.6324 14.32751162667438"
      },
      "geometry": {
        "type": "Point",
        "coordinates": [
          156.15096779688042,
          28.702001106884772
        ]
      }
    },
    {
      "type": "Feature",
      "properties": {
        "norad_id": 39150,
        "name": "GAOFEN-1",
        "group": "resource",
        "lat": 45.23671925271942,
        "lon": 39.56733702399942,
        "alt_km": 644.1422931905408,
        "timestamp": "2025-12-02T19:35:50.218750+00:00",
        "meta_object_name": "GAOFEN-1",
        "meta_object_id": "2013-018A",
        "meta_epoch": "2025-12-02T12:53:02.901696",
        "meta_mean_motion": 14.76504154,
        "meta_eccentricity": 0.0017588,
        "meta_inclination": 97.9339,
        "meta_ra_of_asc_node": 47.376,
        "meta_arg_of_pericenter": 175.078,
        "meta_mean_anomaly": 185.0606,
        "meta_ephemeris_type": 0,
        "meta_classification_type": "U",
        "meta_norad_cat_id": 39150,
        "meta_element_set_no": 999,
        "meta_rev_at_epoch": 67922,
        "meta_bstar": 0.00017196,
        "meta_mean_motion_dot": 1.15e-05,
        "meta_mean_motion_ddot": 0,
        "tle_line1": "1 39150U 13018A   25336.53683914  .00001150  00000+0  17196-3 0  9992",
        "tle_line2": "2 39150  97.9339  47.3760 0017588 175.0780 185.0606 14.76504154679223"
      },
      "geometry": {
        "type": "Point",
        "coordinates": [
          39.56733702399942,
          45.23671925271942
        ]
      }
    }
  ]
}